STARLINK-1887
1 27170C 20088BA  21325.13699662  .00001670  00000-0  11190-3 0  3254
2 27170  53.0516 147.6204 0002004  72.2947 319.7215 15.06393599    11
